[{"OBJECT_NAME":"FLOCK 4H-28","OBJECT_ID":"2025-276BT","EPOCH":"2026-03-09T15:22:11.244288","MEAN_MOTION":15.18390524,"ECCENTRICITY":0.0004562,"INCLINATION":97.4246,"RA_OF_ASC_NODE":143.8079,"ARG_OF_PERICENTER":17.8651,"MEAN_ANOMALY":342.2742,"EPHEMERIS_TYPE":0,"CLASSIFICATION_TYPE":"U","NORAD_CAT_ID":66731,"ELEMENT_SET_NO":999,"REV_AT_EPOCH":1530,"BSTAR":0.00038299,"MEAN_MOTION_DOT":7.812e-5,"MEAN_MOTION_DDOT":0},{"OBJECT_NAME":"HYDROGNSS-1","OBJECT_ID":"2025-276DA","EPOCH":"2026-03-09T16:55:29.279136","MEAN_MOTION":15.18118061,"ECCENTRICITY":0.00027273,"INCLINATION":97.4268,"RA_OF_ASC_NODE":143.9079,"ARG_OF_PERICENTER":33.5879,"MEAN_ANOMALY":326.5527,"EPHEMERIS_TYPE":0,"CLASSIFICATION_TYPE":"U","NORAD_CAT_ID":66762,"ELEMENT_SET_NO":999,"REV_AT_EPOCH":1531,"BSTAR":0.00026903168,"MEAN_MOTION_DOT":5.422e-5,"MEAN_MOTION_DDOT":0}]
